{
  "type": "FeatureCollection",
  "features": [
    {
      "type": "Feature",
      "properties": {
        "norad_id": 38857,
        "name": "GSAT0103 (GALILEO-FM3)",
        "group": "gnss",
        "lat": -9.746215920434942,
        "lon": 99.75014390771268,
        "alt_km": 23222.178990204713,
        "timestamp": "2025-12-19T08:58:49.581002+00:00",
        "meta_object_name": "GSAT0103 (GALILEO-FM3)",
        "meta_object_id": "2012-055A",
        "meta_epoch": "2025-12-18T05:17:11.481792",
        "meta_mean_motion": 1.70473412,
        "meta_eccentricity": 0.00028558,
        "meta_inclination": 55.6954,
        "meta_ra_of_asc_node": 106.5161,
        "meta_arg_of_pericenter": 269.0808,
        "meta_mean_anomaly": 90.8455,
        "meta_ephemeris_type": 0,
        "meta_classification_type": "U",
        "meta_norad_cat_id": 38857,
        "meta_element_set_no": 999,
        "meta_rev_at_epoch": 8192,
        "meta_bstar": 0,
        "meta_mean_motion_dot": -7e-08,
        "meta_mean_motion_ddot": 0,
        "tle_line1": "1 38857U 12055A   25352.22027178 -.00000007  00000+0  00000+0 0  9996",
        "tle_line2": "2 38857  55.6954 106.5161 0002855 269.0808  90.8455  1.70473412 81920"
      },
      "geometry": {
        "type": "Point",
        "coordinates": [
          99.75014390771268,
          -9.746215920434942
        ]
      }
    },
    {
      "type": "Feature",
      "properties": {
        "norad_id": 38953,
        "name": "BEIDOU-2 G6 (C02)",
        "group": "gnss",
        "lat": -3.117102182959738,
        "lon": -53.26718238076334,
        "alt_km": 35770.43128045308,
        "timestamp": "2025-12-19T08:58:49.581035+00:00",
        "meta_object_name": "BEIDOU-2 G6 (C02)",
        "meta_object_id": "2012-059A",
        "meta_epoch": "2025-12-19T01:33:51.788736",
        "meta_mean_motion": 1.00269092,
        "meta_eccentricity": 0.0008257,
        "meta_inclination": 3.9642,
        "meta_ra_of_asc_node": 75.4471,
        "meta_arg_of_pericenter": 292.1855,
        "meta_mean_anomaly": 187.7113,
        "meta_ephemeris_type": 0,
        "meta_classification_type": "U",
        "meta_norad_cat_id": 38953,
        "meta_element_set_no": 999,
        "meta_rev_at_epoch": 4810,
        "meta_bstar": 0,
        "meta_mean_motion_dot": -1.53e-06,
        "meta_mean_motion_ddot": 0,
        "tle_line1": "1 38953U 12059A   25353.06518274 -.00000153  00000+0  00000+0 0  9994",
        "tle_line2": "2 38953   3.9642  75.4471 0008257 292.1855 187.7113  1.00269092 48106"
      },
      "geometry": {
        "type": "Point",
        "coordinates": [
          -53.26718238076334,
          -3.117102182959738
        ]
      }
    },
    {
      "type": "Feature",
      "properties": {
        "norad_id": 38977,
        "name": "LUCH 5B (SDCM/PRN 125)",
        "group": "gnss",
        "lat": 4.257552279048962,
        "lon": -153.10512322487958,
        "alt_km": 35763.736753169054,
        "timestamp": "2025-12-19T08:58:49.581056+00:00",
        "meta_object_name": "LUCH 5B (SDCM/PRN 125)",
        "meta_object_id": "2012-061A",
        "meta_epoch": "2025-12-18T09:47:38.039424",
        "meta_mean_motion": 1.00272499,
        "meta_eccentricity": 0.00066801,
        "meta_inclination": 10.0932,
        "meta_ra_of_asc_node": 51.652,
        "meta_arg_of_pericenter": 194.7877,
        "meta_mean_anomaly": 331.4094,
        "meta_ephemeris_type": 0,
        "meta_classification_type": "U",
        "meta_norad_cat_id": 38977,
        "meta_element_set_no": 999,
        "meta_rev_at_epoch": 4779,
        "meta_bstar": 0,
        "meta_mean_motion_dot": -1.22e-06,
        "meta_mean_motion_ddot": 0,
        "tle_line1": "1 38977U 12061A   25352.40807916 -.00000122  00000+0  00000+0 0  9990",
        "tle_line2": "2 38977  10.0932  51.6520 0006680 194.7877 331.4094  1.00272499 47798"
      },
      "geometry": {
        "type": "Point",
        "coordinates": [
          -153.10512322487958,
          4.257552279048962
        ]
      }
    },
    {
      "type": "Feature",
      "properties": {
        "norad_id": 39155,
        "name": "COSMOS 2485 (747)",
        "group": "gnss",
        "lat": 30.93574643568426,
        "lon": -116.31480576292275,
        "alt_km": 19119.957333561764,
        "timestamp": "2025-12-19T08:58:49.581068+00:00",
        "meta_object_name": "COSMOS 2485 (747)",
        "meta_object_id": "2013-019A",
        "meta_epoch": "2025-12-18T17:09:02.723904",
        "meta_mean_motion": 2.13103162,
        "meta_eccentricity": 0.00247945,
        "meta_inclination": 65.3168,
        "meta_ra_of_asc_node": 79.6662,
        "meta_arg_of_pericenter": 230.0008,
        "meta_mean_anomaly": 129.8045,
        "meta_ephemeris_type": 0,
        "meta_classification_type": "U",
        "meta_norad_cat_id": 39155,
        "meta_element_set_no": 999,
        "meta_rev_at_epoch": 9843,
        "meta_bstar": 0,
        "meta_mean_motion_dot": -3.5e-07,
        "meta_mean_motion_ddot": 0,
        "tle_line1": "1 39155U 13019A   25352.71461486 -.00000035  00000+0  00000+0 0  9998",
        "tle_line2": "2 39155  65.3168  79.6662 0024794 230.0008 129.8045  2.13103162 98431"
      },
      "geometry": {
        "type": "Point",
        "coordinates": [
          -116.31480576292275,
          30.93574643568426
        ]
      }
    },
    {
      "type": "Feature",
      "properties": {
        "norad_id": 39166,
        "name": "GPS BIIF-4  (PRN 27)",
        "group": "gnss",
        "lat": 38.03235123560247,
        "lon": 62.613664157786715,
        "alt_km": 20123.26461236643,
        "timestamp": "2025-12-19T08:58:49.581082+00:00",
        "meta_object_name": "GPS BIIF-4  (PRN 27)",
        "meta_object_id": "2013-023A",
        "meta_epoch": "2025-12-18T04:47:18.266208",
        "meta_mean_motion": 2.00564721,
        "meta_eccentricity": 0.01382651,
        "meta_inclination": 54.6473,
        "meta_ra_of_asc_node": 276.3463,
        "meta_arg_of_pericenter": 48.6769,
        "meta_mean_anomaly": 312.5268,
        "meta_ephemeris_type": 0,
        "meta_classification_type": "U",
        "meta_norad_cat_id": 39166,
        "meta_element_set_no": 999,
        "meta_rev_at_epoch": 9225,
        "meta_bstar": 0,
        "meta_mean_motion_dot": -3.9e-07,
        "meta_mean_motion_ddot": 0,
        "tle_line1": "1 39166U 13023A   25352.19951697 -.00000039  00000+0  00000+0 0  9999",
        "tle_line2": "2 39166  54.6473 276.3463 0138265  48.6769 312.5268  2.00564721 92254"
      },
      "geometry": {
        "type": "Point",
        "coordinates": [
          62.613664157786715,
          38.03235123560247
        ]
      }
    },
    {
      "type": "Feature",
      "properties": {
        "norad_id": 39199,
        "name": "IRNSS-1A",
        "group": "gnss",
        "lat": -17.51002024985927,
        "lon": -87.12588047676996,
        "alt_km": 35684.711438919825,
        "timestamp": "2025-12-19T08:58:49.581094+00:00",
        "meta_object_name": "IRNSS-1A",
        "meta_object_id": "2013-034A",
        "meta_epoch": "2025-12-18T18:41:43.776960",
        "meta_mean_motion": 1.00272479,
        "meta_eccentricity": 0.0024472,
        "meta_inclination": 35.3183,
        "meta_ra_of_asc_node": 66.4661,
        "meta_arg_of_pericenter": 211.0525,
        "meta_mean_anomaly": 145.3931,
        "meta_ephemeris_type": 0,
        "meta_classification_type": "U",
        "meta_norad_cat_id": 39199,
        "meta_element_set_no": 999,
        "meta_rev_at_epoch": 4555,
        "meta_bstar": 0,
        "meta_mean_motion_dot": 6.5e-07,
        "meta_mean_motion_ddot": 0,
        "tle_line1": "1 39199U 13034A   25352.77897890  .00000065  00000+0  00000+0 0  9993",
        "tle_line2": "2 39199  35.3183  66.4661 0024472 211.0525 145.3931  1.00272479 45557"
      },
      "geometry": {
        "type": "Point",
        "coordinates": [
          -87.12588047676996,
          -17.51002024985927
        ]
      }
    },
    {
      "type": "Feature",
      "properties": {
        "norad_id": 39533,
        "name": "GPS BIIF-5  (PRN 30)",
        "group": "gnss",
        "lat": 37.218056875530735,
        "lon": -57.40699898775153,
        "alt_km": 20194.727903180188,
        "timestamp": "2025-12-19T08:58:49.581105+00:00",
        "meta_object_name": "GPS BIIF-5  (PRN 30)",
        "meta_object_id": "2014-008A",
        "meta_epoch": "2025-12-17T04:42:21.782016",
        "meta_mean_motion": 2.00574699,
        "meta_eccentricity": 0.00793343,
        "meta_inclination": 53.632,
        "meta_ra_of_asc_node": 156.7429,
        "meta_arg_of_pericenter": 226.5757,
        "meta_mean_anomaly": 132.7662,
        "meta_ephemeris_type": 0,
        "meta_classification_type": "U",
        "meta_norad_cat_id": 39533,
        "meta_element_set_no": 999,
        "meta_rev_at_epoch": 8603,
        "meta_bstar": 0,
        "meta_mean_motion_dot": 7.8e-07,
        "meta_mean_motion_ddot": 0,
        "tle_line1": "1 39533U 14008A   25351.19608544  .00000078  00000+0  00000+0 0  9992",
        "tle_line2": "2 39533  53.6320 156.7429 0079334 226.5757 132.7662  2.00574699 86034"
      },
      "geometry": {
        "type": "Point",
        "coordinates": [
          -57.40699898775153,
          37.218056875530735
        ]
      }
    }
  ]
}